{
  "type": "FeatureCollection",
  "features": [
    {
      "type": "Feature",
      "properties": {
        "tehsil": "Nagpur Urban"
      },
      "geometry": {
        "type": "Polygon",
        "coordinates": [
          [
            [
              79.0332,
              21.0908
            ],
            [
              79.14320000000001,
              21.0908
            ],
            [
              79.14320000000001,
              21.2008
            ],
            [
              79.0332,
              21.2008
            ],
            [
              79.0332,
              21.0908
            ]
          ]
        ]
      }
    },
    {
      "type": "Feature",
      "properties": {
        "tehsil": "Nagpur Rural"
      },
      "geometry": {
        "type": "Polygon",
        "coordinates": [
          [
            [
              78.89999999999999,
              21.15
            ],
            [
              79.01,
              21.15
            ],
            [
              79.01,
              21.259999999999998
            ],
            [
              78.89999999999999,
              21.259999999999998
            ],
            [
              78.89999999999999,
              21.15
            ]
          ]
        ]
      }
    },
    {
      "type": "Feature",
      "properties": {
        "tehsil": "Kamptee"
      },
      "geometry": {
        "type": "Polygon",
        "coordinates": [
          [
            [
              79.145,
              21.1783
            ],
            [
              79.25500000000001,
              21.1783
            ],
            [
              79.25500000000001,
              21.2883
            ],
            [
              79.145,
              21.2883
            ],
            [
              79.145,
              21.1783
            ]
          ]
        ]
      }
    },
    {
      "type": "Feature",
      "properties": {
        "tehsil": "Hingna"
      },
      "geometry": {
        "type": "Polygon",
        "coordinates": [
          [
            [
              78.865,
              21.015
            ],
            [
              78.97500000000001,
              21.015
            ],
            [
              78.97500000000001,
              21.125
            ],
            [
              78.865,
              21.125
            ],
            [
              78.865,
              21.015
            ]
          ]
        ]
      }
    },
    {
      "type": "Feature",
      "properties": {
        "tehsil": "Katol"
      },
      "geometry": {
        "type": "Polygon",
        "coordinates": [
          [
            [
              78.52829999999999,
              21.2117
            ],
            [
              78.6383,
              21.2117
            ],
            [
              78.6383,
              21.3217
            ],
            [
              78.52829999999999,
              21.3217
            ],
            [
              78.52829999999999,
              21.2117
            ]
          ]
        ]
      }
    },
    {
      "type": "Feature",
      "properties": {
        "tehsil": "Narkhed"
      },
      "geometry": {
        "type": "Polygon",
        "coordinates": [
          [
            [
              78.47829999999999,
              21.4117
            ],
            [
              78.5883,
              21.4117
            ],
            [
              78.5883,
              21.5217
            ],
            [
              78.47829999999999,
              21.5217
            ],
            [
              78.47829999999999,
              21.4117
            ]
          ]
        ]
      }
    },
    {
      "type": "Feature",
      "properties": {
        "tehsil": "Savner"
      },
      "geometry": {
        "type": "Polygon",
        "coordinates": [
          [
            [
              78.74499999999999,
              21.3283
            ],
            [
              78.855,
              21.3283
            ],
            [
              78.855,
              21.438299999999998
            ],
            [
              78.74499999999999,
              21.438299999999998
            ],
            [
              78.74499999999999,
              21.3283
            ]
          ]
        ]
      }
    },
    {
      "type": "Feature",
      "properties": {
        "tehsil": "Kalmeshwar"
      },
      "geometry": {
        "type": "Polygon",
        "coordinates": [
          [
            [
              78.77829999999999,
              21.1783
            ],
            [
              78.8883,
              21.1783
            ],
            [
              78.8883,
              21.2883
            ],
            [
              78.77829999999999,
              21.2883
            ],
            [
              78.77829999999999,
              21.1783
            ]
          ]
        ]
      }
    },
    {
      "type": "Feature",
      "properties": {
        "tehsil": "Ramtek"
      },
      "geometry": {
        "type": "Polygon",
        "coordinates": [
          [
            [
              79.27829999999999,
              21.345
            ],
            [
              79.3883,
              21.345
            ],
            [
              79.3883,
              21.455
            ],
            [
              79.27829999999999,
              21.455
            ],
            [
              79.27829999999999,
              21.345
            ]
          ]
        ]
      }
    },
    {
      "type": "Feature",
      "properties": {
        "tehsil": "Mouda"
      },
      "geometry": {
        "type": "Polygon",
        "coordinates": [
          [
            [
              79.4283,
              21.3283
            ],
            [
              79.5383,
              21.3283
            ],
            [
              79.5383,
              21.438299999999998
            ],
            [
              79.4283,
              21.438299999999998
            ],
            [
              79.4283,
              21.3283
            ]
          ]
        ]
      }
    },
    {
      "type": "Feature",
      "properties": {
        "tehsil": "Parseoni"
      },
      "geometry": {
        "type": "Polygon",
        "coordinates": [
          [
            [
              79.195,
              21.2617
            ],
            [
              79.305,
              21.2617
            ],
            [
              79.305,
              21.3717
            ],
            [
              79.195,
              21.3717
            ],
            [
              79.195,
              21.2617
            ]
          ]
        ]
      }
    },
    {
      "type": "Feature",
      "properties": {
        "tehsil": "Umred"
      },
      "geometry": {
        "type": "Polygon",
        "coordinates": [
          [
            [
              79.27829999999999,
              20.795
            ],
            [
              79.3883,
              20.795
            ],
            [
              79.3883,
              20.905
            ],
            [
              79.27829999999999,
              20.905
            ],
            [
              79.27829999999999,
              20.795
            ]
          ]
        ]
      }
    },
    {
      "type": "Feature",
      "properties": {
        "tehsil": "Kuhi"
      },
      "geometry": {
        "type": "Polygon",
        "coordinates": [
          [
            [
              79.3783,
              20.9117
            ],
            [
              79.48830000000001,
              20.9117
            ],
            [
              79.48830000000001,
              21.0217
            ],
            [
              79.3783,
              21.0217
            ],
            [
              79.3783,
              20.9117
            ]
          ]
        ]
      }
    },
    {
      "type": "Feature",
      "properties": {
        "tehsil": "Bhiwapur"
      },
      "geometry": {
        "type": "Polygon",
        "coordinates": [
          [
            [
              79.445,
              20.7117
            ],
            [
              79.555,
              20.7117
            ],
            [
              79.555,
              20.8217
            ],
            [
              79.445,
              20.8217
            ],
            [
              79.445,
              20.7117
            ]
          ]
        ]
      }
    }
  ]
}